STARLINK-31722          
1 59549U 24074R   26068.13082997 -.00003251  00000+0 -10874-3 0  9995
2 59549  43.0032 346.2692 0000885 267.8976  92.1774 15.27564383105936
FLOCK 4G-29             
1 62642U 25009AK  26068.81464037  .00011147  00000+0  41831-3 0  9994
2 62642  97.4058 151.3683 0001366 288.0502  72.0588 15.27382318 63721
